ION SCV-004             
1 50993U 22002K   26068.68892644  .00006538  00000+0  23198-3 0  9998
2 50993  97.2961 128.2294 0007216   1.6783 358.4480 15.29369331230088
STARLINK-31274          
1 59078U 24041E   26068.05546825  .00000563  00000+0  29958-4 0  9997
2 59078  43.0034 314.3613 0000824 276.4508  83.6250 15.27581829114178
